CCSDS_OEM_VERS = 2.0  
CREATION_DATE  = 2026-05-08T16:27:24
ORIGINATOR     = ESOC/OPS-GFA                            
 
 



META_START
OBJECT_NAME          = LISA                                    
OBJECT_ID            = -1000                                   
CENTER_NAME          = SUN                     
REF_FRAME            = EME2000 
TIME_SYSTEM          = TCB
START_TIME           = 2036-12-23T00:00:30.346418            
STOP_TIME            = 2047-09-05T22:45:11.884251            
INTERPOLATION        = HERMITE                                 
INTERPOLATION_DEGREE = 7                                       
META_STOP

2037-10-02T06:28:07.285115     1.47974898893747717e+08   -2.29469383715764359e+07   -9.02724159579527192e+06    4.77675633220070317e+00    2.69624095963560819e+01    1.14890862363057913e+01   -5.81698089982716983e-06    9.02163210295307526e-07    3.54908345525477031e-07
2037-10-03T02:40:48.149043     1.48307049289656490e+08   -2.09828100658580959e+07   -8.19037526633380167e+06    4.35299309923309519e+00    2.70252485956748920e+01    1.15137151098562001e+01   -5.83092880722656812e-06    8.25077914043848650e-07    3.22059703054034556e-07
2037-10-03T22:53:29.012971     1.48608330400027692e+08   -1.90143137712945566e+07   -7.35180394331629947e+06    3.92825856448510624e+00    2.70824716575010953e+01    1.15359510644568424e+01   -5.84367879123060841e-06    7.47798806926080043e-07    2.89134553862656729e-07
2037-10-04T19:06:09.876899     1.48878674734542280e+08   -1.70418586059427038e+07   -6.51170193349010684e+06    3.50264001292854132e+00    2.71340652441054466e+01    1.15557887738963103e+01   -5.85522750896635248e-06    6.70341404347677925e-07    2.56139511990336723e-07
2037-10-05T15:18:50.740827     1.49118021183630317e+08   -1.50658546272324901e+07   -5.67024391158545017e+06    3.07622496416149582e+00    2.71800169486933036e+01    1.15732233940242697e+01   -5.86557185534133594e-06    5.92721276914842540e-07    2.23081213808526951e-07
2037-10-06T11:31:31.604756     1.49326315020589769e+08   -1.30867127528354414e+07   -4.82760488665669505e+06    2.64910115487893227e+00    2.72203154993425152e+01    1.15882505643415463e+01   -5.87470896861767864e-06    5.14954048191456242e-07    1.89966317031763213e-07
2037-10-07T07:44:12.468685     1.49503507899469912e+08   -1.11048446819566488e+07   -3.98396016862451658e+06    2.22135652109183024e+00    2.72549507627596626e+01    1.16008664095112124e+01   -5.88263623174369328e-06    4.37055391947977709e-07    1.56801499534898010e-07
2037-10-08T03:56:53.332613     1.49649557854094386e+08   -9.12066281574276462e+06   -3.13948533443637192e+06    1.79307918040202185e+00    2.72839137478178877e+01    1.16110675407766770e+01   -5.88935126949373301e-06    3.59041028909055440e-07    1.23593457979656870e-07
2037-10-09T00:09:34.196541     1.49764429303598583e+08   -7.13458017549872398e+06   -2.29435619326252490e+06    1.36435741463967020e+00    2.73071966088396145e+01    1.16188510572728116e+01   -5.89485194137435228e-06    2.80926722996154721e-07    9.03489062491914157e-08
2037-10-09T20:22:15.060469     1.49848093069856375e+08   -5.14701031740564108e+06   -1.44874875014517084e+06    9.35279653170578484e-01    2.73247926485873620e+01    1.16242145472161376e+01   -5.89913633027649723e-06    2.02728277056852467e-07    5.70745736870774185e-08
2037-10-10T16:34:55.924398     1.49900526412171006e+08   -3.15836724243260920e+06   -6.02839167517689988e+05    5.05934457180297059e-01    2.73366963209259772e+01    1.16271560889600902e+01   -5.90220272699444627e-06    1.24461528106066129e-07    2.37772031510601076e-08
2037-10-11T12:47:36.788326     1.49921713084605336e+08   -1.16906530013491958e+06    2.43196275988278911e+05    7.64105052420651631e-02    2.73429032331195145e+01    1.16276742519014036e+01   -5.90404961044428561e-06    4.61423420479716054e-08   -9.53645113107772158e-09
2037-10-12T09:00:17.652255     1.49911643421325803e+08    8.20480914968904108e+05    1.08918123003088683e+06   -3.53203419524104056e-01    2.73434101477260256e+01    1.16257680972236201e+01   -5.90467562363194816e-06   -3.22133921136386991e-08   -4.28596259003454367e-08
2037-10-13T05:05:35.606419     1.49870660304139316e+08    2.79774821483956091e+06    1.92979202671140572e+06   -7.80203483366685990e-01    2.73382638619462810e+01    1.16214708777313280e+01   -5.90408747249729412e-06   -1.10112568313789426e-07   -7.59826653784864703e-08
2037-10-14T01:10:53.560582     1.49798800021661699e+08    4.77443963920189999e+06    2.77000544565837737e+06   -1.20711734915946067e+00    2.73274838043883612e+01    1.16147783714075850e+01   -5.90229167809188349e-06   -1.88016399970594222e-07   -1.09101728778608685e-07
2037-10-14T21:16:11.514746     1.49696071990626901e+08    6.75014778281545267e+06    3.60964828781482717e+06   -1.63385766675759836e+00    2.73110702055720544e+01    1.16056911070621780e+01   -5.89928783099611213e-06   -2.65909196423781196e-07   -1.42210141877589935e-07
2037-10-15T17:21:29.468910     1.49562491893667608e+08    8.72446527140930295e+06    4.44854739819366299e+06   -2.06033706302061148e+00    2.72890244316661423e+01    1.15942100965349617e+01   -5.89507570858493223e-06   -3.43775242046272163e-07   -1.75301220757732798e-07
2037-10-16T13:26:47.423074     1.49398081725938916e+08    1.06969848662674539e+07    5.28652971058170311e+06   -2.48646815610174521e+00    2.72613489861178131e+01    1.15803368353182226e+01   -5.88965529584047761e-06   -4.21598801065740723e-07   -2.08368273958297013e-07
2037-10-17T09:32:05.377238     1.49202869818934739e+08    1.26672995583024360e+07    6.12342228766087443e+06   -2.91216357109338952e+00    2.72280475109459452e+01    1.15640733030295912e+01   -5.88302680215345767e-06   -4.99364122028087735e-07   -2.41404604454807144e-07
2037-10-18T05:37:23.331402     1.48976890846222758e+08    1.46350026539503783e+07    6.95905235756214894e+06   -3.33733595674271744e+00    2.71891247877245448e+01    1.15454219637479767e+01   -5.87519067412100706e-06   -5.77055441904666644e-07   -2.74403511466955817e-07
2037-10-19T01:42:41.285566     1.48720185815823257e+08    1.65996878552022781e+07    7.79324734785991907e+06   -3.76189800294770915e+00    2.71445867382820332e+01    1.15243857662250004e+01   -5.86614760432821334e-06   -6.54656989842467966e-07   -3.07358292094711908e-07
2037-10-19T21:47:59.239730     1.48432802053955793e+08    1.85609493360860758e+07    8.62583491801444441e+06   -4.18576245874367903e+00    2.70944404251421922e+01    1.15009681439842755e+01   -5.85589853613574963e-06   -7.32152990558626271e-07   -3.40262242783305984e-07
2037-10-20T17:53:17.193894     1.48114793184878737e+08    2.05183818179141656e+07    9.45664299127007090e+06   -4.60884215049053569e+00    2.70386940517325876e+01    1.14751730153209834e+01   -5.84444466443710344e-06   -8.09527667376954786e-07   -3.73108660615957853e-07
2037-10-21T13:58:35.148058     1.47766219111546040e+08    2.24715806456109881e+07    1.02854997870168425e+07   -5.03104999997080959e+00    2.69773569623861604e+01    1.14470047832141084e+01   -5.83178743243647348e-06   -8.86765244910471743e-07   -4.05890844436267583e-07
2037-10-22T10:03:53.102222     1.47387146001805842e+08    2.44201418674353994e+07    1.11122338546232283e+07   -5.45229904210872984e+00    2.69104396421618972e+01    1.14164683351637812e+01   -5.81792852440482621e-06   -9.63849951384452822e-07   -4.38602095797744364e-07
2037-10-23T06:09:11.056386     1.46977646284865618e+08    2.63636623204122968e+07    1.19366741097475607e+07   -5.87250244202039351e+00    2.68379537165102242e+01    1.13835690429661032e+01   -5.80286985439442605e-06   -1.04076602060440993e-06   -4.71235719742244554e-07
2037-10-24T02:14:29.010550     1.46537798662748486e+08    2.83017397237884067e+07    1.27586498741358612e+07   -6.29157351110526886e+00    2.67599119508090340e+01    1.13483127624378657e+01   -5.78661355103233922e-06   -1.11749769356898749e-06   -5.03785025407914278e-07
2037-10-24T22:19:46.964714     1.46067688141465008e+08    3.02339727828268297e+07    1.35779909199137520e+07   -6.70942572188910002e+00    2.66763282497960148e+01    1.13107058331035759e+01   -5.76916193822579819e-06   -1.19402921972384146e-06   -5.36243326464121629e-07
2037-10-25T18:25:04.918877     1.45567406086625397e+08    3.21599613052540794e+07    1.43945275193801504e+07   -7.12597272132843340e+00    2.65872176569231726e+01    1.12707550778571939e+01   -5.75051751182730124e-06   -1.27034485785890742e-06   -5.68603941374672264e-07
2037-10-26T14:28:54.370615     1.45037717442130417e+08    3.40769615261498243e+07    1.52070966905994024e+07   -7.54062118012079452e+00    2.64927155100566303e+01    1.12285209776355579e+01   -5.73070848851113728e-06   -1.34633596107018138e-06   -6.00820808041457944e-07
2037-10-27T10:32:43.822354     1.44478131683826774e+08    3.59869378994348049e+07    1.60165313741350789e+07   -7.95379607025430957e+00    2.63927333824305137e+01    1.11839638302023907e+01   -5.70971563392125760e-06   -1.42208038635879184e-06   -6.32926939538925670e-07
2037-10-28T06:36:33.274092     1.43888758352109909e+08    3.78894952871919423e+07    1.68226640812249593e+07   -8.36541200667569740e+00    2.62872896543603645e+01    1.11370918726711654e+01   -5.68754236878896008e-06   -1.49756254841779450e-06   -6.64915725035993452e-07
2037-10-29T02:40:22.725830     1.43269713101449132e+08    3.97842398824959621e+07    1.76253279192488417e+07   -8.77538385834679424e+00    2.61764038314810996e+01    1.10879138194496125e+01   -5.66419230953255404e-06   -1.57276687465134982e-06   -6.96780560031847211e-07
2037-10-29T22:44:12.177568     1.42621117720364034e+08    4.16707793222449943e+07    1.84243566398092471e+07   -9.18362676309078552e+00    2.60600965434844483e+01    1.10364388616330125e+01   -5.63966928722488519e-06   -1.64767781449575812e-06   -7.28514850399933350e-07
